[{"OBJECT_NAME":"SUPERVIEW NEO-1 01","OBJECT_ID":"2022-043A","EPOCH":"2026-03-09T22:37:01.879104","MEAN_MOTION":15.15546982,"ECCENTRICITY":3.46e-5,"INCLINATION":97.3476,"RA_OF_ASC_NODE":144.9365,"ARG_OF_PERICENTER":232.358,"MEAN_ANOMALY":127.7621,"EPHEMERIS_TYPE":0,"CLASSIFICATION_TYPE":"U","NORAD_CAT_ID":52320,"ELEMENT_SET_NO":999,"REV_AT_EPOCH":21452,"BSTAR":0.00038664053,"MEAN_MOTION_DOT":7.269e-5,"MEAN_MOTION_DDOT":0},{"OBJECT_NAME":"STARLINK-6263","OBJECT_ID":"2023-065AY","EPOCH":"2026-03-09T22:00:01.999584","MEAN_MOTION":15.14287006,"ECCENTRICITY":0.00010273,"INCLINATION":43.0011,"RA_OF_ASC_NODE":221.3286,"ARG_OF_PERICENTER":289.7985,"MEAN_ANOMALY":235.0267,"EPHEMERIS_TYPE":0,"CLASSIFICATION_TYPE":"U","NORAD_CAT_ID":56549,"ELEMENT_SET_NO":999,"REV_AT_EPOCH":572,"BSTAR":0.0067881777,"MEAN_MOTION_DOT":0.00128532,"MEAN_MOTION_DDOT":0}]
